{
    "links": {
        "self": "http://www.neowsapp.com/rest/v1/neo/3775204?api_key=iIulBulltgU6a56xZRHN4H3l9WmuAYTsLGpBGhQ2"
    },
    "id": "3775204",
    "neo_reference_id": "3775204",
    "name": "(2017 LV)",
    "designation": "2017 LV",
    "nasa_jpl_url": "http://ssd.jpl.nasa.gov/sbdb.cgi?sstr=3775204",
    "absolute_magnitude_h": 26.1,
    "estimated_diameter": {
        "kilometers": {
            "estimated_diameter_min": 0.0160160338,
            "estimated_diameter_max": 0.0358129403
        },
        "meters": {
            "estimated_diameter_min": 16.0160337979,
            "estimated_diameter_max": 35.8129403019
        },
        "miles": {
            "estimated_diameter_min": 0.0099518989,
            "estimated_diameter_max": 0.0222531225
        },
        "feet": {
            "estimated_diameter_min": 52.5460443254,
            "estimated_diameter_max": 117.4965270602
        }
    },
    "is_potentially_hazardous_asteroid": false,
    "close_approach_data": [
        {
            "close_approach_date": "2017-06-18",
            "close_approach_date_full": "2017-Jun-18 13:31",
            "epoch_date_close_approach": 1497792660000,
            "relative_velocity": {
                "kilometers_per_second": "10.7325694383",
                "kilometers_per_hour": "38637.2499780474",
                "miles_per_hour": "24007.6845766373"
            },
            "miss_distance": {
                "astronomical": "0.0175425035",
                "lunar": "6.8240338615",
                "kilometers": "2624321.158067545",
                "miles": "1630677.552100321"
            },
            "orbiting_body": "Earth"
        },
        {
            "close_approach_date": "2076-10-24",
            "close_approach_date_full": "2076-Oct-24 12:16",
            "epoch_date_close_approach": 3370767360000,
            "relative_velocity": {
                "kilometers_per_second": "24.5715780239",
                "kilometers_per_hour": "88457.6808860828",
                "miles_per_hour": "54964.1628816885"
            },
            "miss_distance": {
                "astronomical": "0.4819917645",
                "lunar": "187.4947963905",
                "kilometers": "72104941.326741615",
                "miles": "44803932.954459687"
            },
            "orbiting_body": "Earth"
        }
    ],
    "orbital_data": {
        "orbit_id": "5",
        "orbit_determination_date": "2017-06-19 06:18:18",
        "first_observation_date": "2017-06-13",
        "last_observation_date": "2017-06-19",
        "data_arc_in_days": 6,
        "observations_used": 65,
        "orbit_uncertainty": "8",
        "minimum_orbit_intersection": ".0165404",
        "jupiter_tisserand_invariant": "3.946",
        "epoch_osculation": "2457919.5",
        "eccentricity": ".4847371077084951",
        "semi_major_axis": "1.778190604951907",
        "inclination": "4.430093401771816",
        "ascending_node_longitude": "256.3299497899617",
        "orbital_period": "866.095722819404",
        "perihelion_distance": ".9162356341531003",
        "perihelion_argument": "58.33598282667563",
        "aphelion_distance": "2.640145575750713",
        "perihelion_time": "2457960.135082908524",
        "mean_anomaly": "343.1096846899924",
        "mean_motion": ".4156584434201925",
        "equinox": "J2000",
        "orbit_class": {
            "orbit_class_type": "APO",
            "orbit_class_description": "Near-Earth asteroid orbits which cross the Earth’s orbit similar to that of 1862 Apollo",
            "orbit_class_range": "a (semi-major axis) > 1.0 AU; q (perihelion) < 1.017 AU"
        }
    },
    "is_sentry_object": false
}